{
  "norad_id": 63196,
  "name": "STARLINK-32946",
  "history": [
    {
      "epoch": "2026-03-28T10:30:06.128352Z",
      "apogee_km": 483.8562698487103,
      "perigee_km": 482.1231492418783,
      "latitude_deg": -2.4621260621872543e-05,
      "longitude_deg": 0.0695136115514602,
      "height_km": 482.3120972372649,
      "semi_major_axis_km": 6861.126709545294,
      "eccentricity": 0.0001263,
      "inclination_deg": 43.0041,
      "raan_deg": 343.4531,
      "arg_perigee_deg": 301.6384,
      "mean_anomaly_deg": 58.4344,
      "mean_motion_rev_day": 15.27599833
    },
    {
      "epoch": "2026-03-29T02:11:40.072992Z",
      "apogee_km": 484.43675487748806,
      "perigee_km": 481.5838898208558,
      "latitude_deg": 4.0418212757354094e-06,
      "longitude_deg": 120.34032915096886,
      "height_km": 483.03104711377995,
      "semi_major_axis_km": 6861.147322349172,
      "eccentricity": 0.0002079,
      "inclination_deg": 43.0026,
      "raan_deg": 339.7598,
      "arg_perigee_deg": 260.1809,
      "mean_anomaly_deg": 99.8808,
      "mean_motion_rev_day": 15.27592949
    }
  ]
}